{"type": "FeatureCollection", "features": [ {"type": "Feature", "properties": {"norad_id": 28649, "name": "IRS-P5 (CARTOSAT-1)", "group": "resource", "lat": -55.99936270546468, "lon": -168.50955090958004, "alt_km": 604.1092933466898, "timestamp": "2025-12-22T20:43:45.499259+00:00", "meta": {"OBJECT_NAME": "IRS-P5 (CARTOSAT-1)", "OBJECT_ID": "2005-017A", "EPOCH": "2025-12-22T13:13:31.817280", "MEAN_MOTION": 14.90435728, "ECCENTRICITY": 6.488e-05, "INCLINATION": 97.5483, "RA_OF_ASC_NODE": 22.5289, "ARG_OF_PERICENTER": 55.2209, "MEAN_ANOMALY": 304.907, "EPHEMERIS_TYPE": 0, "CLASSIFICATION_TYPE": "U", "NORAD_CAT_ID": 28649, "ELEMENT_SET_NO": 999, "REV_AT_EPOCH": 11750, "BSTAR": 0.00015107404, "MEAN_MOTION_DOT": 1.42e-05, "MEAN_MOTION_DDOT": 0}, "tle": {"line1": "1 28649U 05017A   25356.55106270  .00001420  00000+0  15107-3 0  9992", "line2": "2 28649  97.5483  22.5289 0000648  55.2209 304.9070 14.90435728117506"}}, "geometry": {"type": "Point", "coordinates": [-168.50955090958004, -55.99936270546468]}}, {"type": "Feature", "properties": {"norad_id": 28893, "name": "SINAH 1", "group": "resource", "lat": -12.26010370336597, "lon": 127.25739424602097, "alt_km": 690.2806080919727, "timestamp": "2025-12-22T20:43:45.499269+00:00", "meta": {"OBJECT_NAME": "SINAH 1", "OBJECT_ID": "2005-043D", "EPOCH": "2025-12-22T14:13:27.952896", "MEAN_MOTION": 14.63972248, "ECCENTRICITY": 0.00156856, "INCLINATION": 98.2609, "RA_OF_ASC_NODE": 125.1765, "ARG_OF_PERICENTER": 108.2413, "MEAN_ANOMALY": 252.0498, "EPHEMERIS_TYPE": 0, "CLASSIFICATION_TYPE": "U", "NORAD_CAT_ID": 28893, "ELEMENT_SET_NO": 999, "REV_AT_EPOCH": 7468, "BSTAR": 8.263685e-05, "MEAN_MOTION_DOT": 3.84e-06, "MEAN_MOTION_DDOT": 0}, "tle": {"line1": "1 28893U 05043D   25356.59268464  .00000384  00000+0  82637-4 0  9991", "line2": "2 28893  98.2609 125.1765 0015685 108.2413 252.0498 14.63972248 74688"}}, "geometry": {"type": "Point", "coordinates": [127.25739424602097, -12.26010370336597]}}, {"type": "Feature", "properties": {"norad_id": 29079, "name": "EROS B", "group": "resource", "lat": -68.60138397278064, "lon": -85.27972404731206, "alt_km": 360.750535163068, "timestamp": "2025-12-22T20:43:45.499280+00:00", "meta": {"OBJECT_NAME": "EROS B", "OBJECT_ID": "2006-014A", "EPOCH": "2025-12-22T13:33:20.417760", "MEAN_MOTION": 15.71327143, "ECCENTRICITY": 0.00038997, "INCLINATION": 97.3463, "RA_OF_ASC_NODE": 113.6284, "ARG_OF_PERICENTER": 310.936, "MEAN_ANOMALY": 49.1565, "EPHEMERIS_TYPE": 0, "CLASSIFICATION_TYPE": "U", "NORAD_CAT_ID": 29079, "ELEMENT_SET_NO": 999, "REV_AT_EPOCH": 9234, "BSTAR": 0.0014360825, "MEAN_MOTION_DOT": 0.00185743, "MEAN_MOTION_DDOT": 0}, "tle": {"line1": "1 29079U 06014A   25356.56481965  .00185743  00000+0  14361-2 0  9997", "line2": "2 29079  97.3463 113.6284 0003899 310.9360  49.1565 15.71327143 92349"}}, "geometry": {"type": "Point", "coordinates": [-85.27972404731206, -68.60138397278064]}}, {"type": "Feature", "properties": {"norad_id": 29228, "name": "RESURS-DK 1", "group": "resource", "lat": -58.19870256676035, "lon": -68.2027811381279, "alt_km": 531.2209748638134, "timestamp": "2025-12-22T20:43:45.499291+00:00", "meta": {"OBJECT_NAME": "RESURS-DK 1", "OBJECT_ID": "2006-021A", "EPOCH": "2025-12-22T11:42:44.959104", "MEAN_MOTION": 15.1221149, "ECCENTRICITY": 0.00068667, "INCLINATION": 69.9337, "RA_OF_ASC_NODE": 76.645, "ARG_OF_PERICENTER": 250.3556, "MEAN_ANOMALY": 109.6869, "EPHEMERIS_TYPE": 0, "CLASSIFICATION_TYPE": "U", "NORAD_CAT_ID": 29228, "ELEMENT_SET_NO": 999, "REV_AT_EPOCH": 7585, "BSTAR": 0.00015666054, "MEAN_MOTION_DOT": 2.606e-05, "MEAN_MOTION_DDOT": 0}, "tle": {"line1": "1 29228U 06021A   25356.48802036  .00002606  00000+0  15666-3 0  9994", "line2": "2 29228  69.9337  76.6450 0006866 250.3556 109.6869 15.12211490 75852"}}, "geometry": {"type": "Point", "coordinates": [-68.2027811381279, -58.19870256676035]}}, {"type": "Feature", "properties": {"norad_id": 29268, "name": "ARIRANG-2 (KOMPSAT-2)", "group": "resource", "lat": -81.84807048904132, "lon": -101.40594610103183, "alt_km": 676.7594332005083, "timestamp": "2025-12-22T20:43:45.499301+00:00", "meta": {"OBJECT_NAME": "ARIRANG-2 (KOMPSAT-2)", "OBJECT_ID": "2006-031A", "EPOCH": "2025-12-22T14:59:11.227200", "MEAN_MOTION": 14.64501255, "ECCENTRICITY": 0.00131512, "INCLINATION": 97.8253, "RA_OF_ASC_NODE": 184.6153, "ARG_OF_PERICENTER": 275.115, "MEAN_ANOMALY": 176.3662, "EPHEMERIS_TYPE": 0, "CLASSIFICATION_TYPE": "U", "NORAD_CAT_ID": 29268, "ELEMENT_SET_NO": 999, "REV_AT_EPOCH": 3563, "BSTAR": 4.1381595e-05, "MEAN_MOTION_DOT": 1.74e-06, "MEAN_MOTION_DDOT": 0}, "tle": {"line1": "1 29268U 06031A   25356.62443550  .00000174  00000+0  41382-4 0  9990", "line2": "2 29268  97.8253 184.6153 0013151 275.1150 176.3662 14.64501255 35634"}}, "geometry": {"type": "Point", "coordinates": [-101.40594610103183, -81.84807048904132]}}, {"type": "Feature", "properties": {"norad_id": 29709, "name": "LAPAN-TUBSAT", "group": "resource", "lat": -75.46954860724011, "lon": 133.77594058611106, "alt_km": 626.5235614091835, "timestamp": "2025-12-22T20:43:45.499312+00:00", "meta": {"OBJECT_NAME": "LAPAN-TUBSAT", "OBJECT_ID": "2007-001A", "EPOCH": "2025-12-22T14:43:22.224288", "MEAN_MOTION": 14.85686164, "ECCENTRICITY": 0.00133689, "INCLINATION": 98.1256, "RA_OF_ASC_NODE": 346.9728, "ARG_OF_PERICENTER": 45.0106, "MEAN_ANOMALY": 315.219, "EPHEMERIS_TYPE": 0, "CLASSIFICATION_TYPE": "U", "NORAD_CAT_ID": 29709, "ELEMENT_SET_NO": 999, "REV_AT_EPOCH": 2493, "BSTAR": 0.00012762707, "MEAN_MOTION_DOT": 1.051e-05, "MEAN_MOTION_DDOT": 0}, "tle": {"line1": "1 29709U 07001A   25356.61345167  .00001051  00000+0  12763-3 0  9997", "line2": "2 29709  98.1256 346.9728 0013368  45.0106 315.2190 14.85686164 24934"}}, "geometry": {"type": "Point", "coordinates": [133.77594058611106, -75.46954860724011]}}, {"type": "Feature", "properties": {"norad_id": 31113, "name": "HAIYANG-1B", "group": "resource", "lat": -47.46535838759442, "lon": -10.083871704065722, "alt_km": 789.9248928071702, "timestamp": "2025-12-22T20:43:45.499322+00:00", "meta": {"OBJECT_NAME": "HAIYANG-1B", "OBJECT_ID": "2007-010A", "EPOCH": "2025-12-22T10:53:04.035552", "MEAN_MOTION": 14.30968169, "ECCENTRICITY": 0.00137518, "INCLINATION": 98.3325, "RA_OF_ASC_NODE": 340.3307, "ARG_OF_PERICENTER": 10.2772, "MEAN_ANOMALY": 349.869, "EPHEMERIS_TYPE": 0, "CLASSIFICATION_TYPE": "U", "NORAD_CAT_ID": 31113, "ELEMENT_SET_NO": 999, "REV_AT_EPOCH": 97535, "BSTAR": 5.2946745e-05, "MEAN_MOTION_DOT": 9.8e-07, "MEAN_MOTION_DDOT": 0}, "tle": {"line1": "1 31113U 07010A   25356.45351893  .00000098  00000+0  52947-4 0  9993", "line2": "2 31113  98.3325 340.3307 0013751  10.2772 349.8690 14.30968169975352"}}, "geometry": {"type": "Point", "coordinates": [-10.083871704065722, -47.46535838759442]}}, {"type": "Feature", "properties": {"norad_id": 31598, "name": "COSMO-SKYMED 1", "group": "resource", "lat": -41.93861459489972, "lon": -4.822187821977227, "alt_km": 587.2204777844636, "timestamp": "2025-12-22T20:43:45.499358+00:00", "meta": {"OBJECT_NAME": "COSMO-SKYMED 1", "OBJECT_ID": "2007-023A", "EPOCH": "2025-12-22T13:19:00.028416", "MEAN_MOTION": 14.95837267, "ECCENTRICITY": 0.00014795, "INCLINATION": 97.8839, "RA_OF_ASC_NODE": 182.0189, "ARG_OF_PERICENTER": 80.7613, "MEAN_ANOMALY": 279.3775, "EPHEMERIS_TYPE": 0, "CLASSIFICATION_TYPE": "U", "NORAD_CAT_ID": 31598, "ELEMENT_SET_NO": 999, "REV_AT_EPOCH": 337, "BSTAR": 0.00029879247, "MEAN_MOTION_DOT": 3.278e-05, "MEAN_MOTION_DDOT": 0}, "tle": {"line1": "1 31598U 07023A   25356.55486144  .00003278  00000+0  29879-3 0  9993", "line2": "2 31598  97.8839 182.0189 0001479  80.7613 279.3775 14.95837267  3372"}}, "geometry": {"type": "Point", "coordinates": [-4.822187821977227, -41.93861459489972]}}, {"type": "Feature", "properties": {"norad_id": 31698, "name": "TERRASAR-X", "group": "resource", "lat": 7.3201582493250354, "lon": 1.1344671508226112, "alt_km": 510.2477570410201, "timestamp": "2025-12-22T20:43:45.499381+00:00", "meta": {"OBJECT_NAME": "TERRASAR-X", "OBJECT_ID": "2007-026A", "EPOCH": "2025-12-22T11:12:42.874560", "MEAN_MOTION": 15.19156937, "ECCENTRICITY": 0.00019029, "INCLINATION": 97.4451, "RA_OF_ASC_NODE": 1.7062, "ARG_OF_PERICENTER": 89.1914, "MEAN_ANOMALY": 270.9539, "EPHEMERIS_TYPE": 0, "CLASSIFICATION_TYPE": "U", "NORAD_CAT_ID": 31698, "ELEMENT_SET_NO": 999, "REV_AT_EPOCH": 2639, "BSTAR": 3.1918703e-05, "MEAN_MOTION_DOT": 6.03e-06, "MEAN_MOTION_DDOT": 0}, "tle": {"line1": "1 31698U 07026A   25356.46716290  .00000603  00000+0  31919-4 0  9993", "line2": "2 31698  97.4451   1.7062 0001902  89.1914 270.9539 15.19156937 26391"}}, "geometry": {"type": "Point", "coordinates": [1.1344671508226112, 7.3201582493250354]}}, {"type": "Feature", "properties": {"norad_id": 32060, "name": "WORLDVIEW-1 (WV-1)", "group": "resource", "lat": -22.744805171586652, "lon": -68.91761342205506, "alt_km": 501.7327579345274, "timestamp": "2025-12-22T20:43:45.499398+00:00", "meta": {"OBJECT_NAME": "WORLDVIEW-1 (WV-1)", "OBJECT_ID": "2007-041A", "EPOCH": "2025-12-22T07:14:04.847136", "MEAN_MOTION": 15.23906733, "ECCENTRICITY": 0.00033647, "INCLINATION": 97.3828, "RA_OF_ASC_NODE": 113.6449, "ARG_OF_PERICENTER": 5.192, "MEAN_ANOMALY": 354.9352, "EPHEMERIS_TYPE": 0, "CLASSIFICATION_TYPE": "U", "NORAD_CAT_ID": 32060, "ELEMENT_SET_NO": 999, "REV_AT_EPOCH": 1593, "BSTAR": 0.00033477343, "MEAN_MOTION_DOT": 8.019e-05, "MEAN_MOTION_DDOT": 0}, "tle": {"line1": "1 32060U 07041A   25356.30144499  .00008019  00000+0  33477-3 0  9992", "line2": "2 32060  97.3828 113.6449 0003364   5.1920 354.9352 15.23906733 15939"}}, "geometry": {"type": "Point", "coordinates": [-68.91761342205506, -22.744805171586652]}}]}